{
"type": "FeatureCollection",
"name": "baseline_1",
"crs": { "type": "name", "properties": { "name": "urn:ogc:def:crs:EPSG::32646" } },
"features": [
{"type":"Feature","properties":{"id":1234},"geometry":{"type":"MultiLineString","coordinates":[[[250632.311470829241443,2525649.100855668075383],[251951.001937068242114,2524146.407068558502942],[252607.760017871012678,2523393.861250759102404],[253042.149201983818784,2522890.565473234280944],[253400.690652322140522,2522469.553759637288749],[253683.384368885977892,2522130.82610996812582],[253939.070739313785452,2521818.727198779582977],[254167.749763605592307,2521533.257026071660221],[254369.421441761398455,2521274.415591842494905],[254544.085773781233002,2521042.202896093949676],[254708.022888877865626,2520818.067163675092161],[254861.232787051267223,2520602.008394586853683],[255003.715468301525107,2520394.026588829234242],[255135.470932628610171,2520194.121746402233839],[255256.499180032493314,2520002.293867305386811],[255366.800210513174534,2519818.542951539158821],[255466.374024070682935,2519642.868999102618545],[255555.220620705047622,2519475.272009997162968],[255638.766710153809981,2519309.568059171549976],[255717.012292417057324,2519145.757146627176553],[255789.957367494673235,2518983.839272363111377],[255857.601935386715923,2518823.814436379820108],[255919.94599609321449,2518665.682638676837087],[255976.989549614139833,2518509.443879255093634],[256028.732595949491952,2518355.098158113192767],[256075.175135099241743,2518202.645475252065808],[256116.31716706341831,2518052.085830671712756],[256152.158691842050757,2517903.41922437120229],[256182.69970943510998,2517756.645656351931393],[256207.94021984259598,2517611.765126612968743],[256227.880223064508755,2517468.777635154314339],[256242.519719100848306,2517327.683181976899505],[256251.858707951614633,2517188.481767079327255],[256255.897189616807736,2517051.173390462528914],[256261.07149425035459,2516915.758052126504481],[256267.381621852167882,2516782.235752070322633],[256274.827572422393132,2516650.606490295380354],[256283.409345960913925,2516520.870266800746322],[256293.126942467788467,2516393.027081586886197],[256303.98036194301676,2516267.07693465333432],[256315.969604386598803,2516143.019826001022011],[256329.094669798505493,2516020.855755628552288],[256343.355558178736828,2515900.584723536856472],[256358.752269527321914,2515782.206729725934565],[256375.284803844231647,2515665.721774195320904],[256392.953161129436921,2515551.12985694501549],[256411.75734138302505,2515438.430977975949645],[256431.697344604937825,2515327.625137287192047],[256452.773170795175247,2515218.712334878742695],[256474.984819953795522,2515111.692570751532912],[256498.332292080711341,2515006.565844904165715],[256522.815587175951805,2514903.332157337572426],[256548.43470523954602,2514801.991508051753044],[256575.189646271493984,2514702.543897045776248],[256603.080410271766596,2514604.989324321039021],[256632.106997240363853,2514509.327789877075702],[256662.269407177314861,2514415.55929371342063],[256693.567640082590515,2514323.683835829608142],[256726.001695956219919,2514233.701416227035224],[256759.571574798144866,2514145.612034904770553],[256794.277276608452667,2514059.415691863745451],[256830.118801387085114,2513975.112387102562934],[256867.096149134042207,2513892.702120622154325],[256905.209319849323947,2513812.184892422053963],[256944.458313532988541,2513733.560702502727509],[256984.843130184977781,2513656.829550864174962],[257026.363769805291668,2513581.234222193714231],[257069.0202323939302,2513506.774716491810977],[257112.81251795089338,2513433.451033757999539],[257157.740626476239413,2513361.263173992279917],[257203.804557969880989,2513290.211137195117772],[257251.004312431876315,2513220.294923366978765],[257299.339889862225391,2513151.514532506465912],[257348.81129026087001,2513083.869964613579214],[257399.418513627897482,2513017.361219690181315],[257451.161559963249601,2512951.988297734409571],[257504.040429266926367,2512887.751198747660965],[257558.055121538927779,2512824.649922729004174],[257613.205636779253837,2512762.6844696784392],[257669.491974987962749,2512701.854839596897364],[257726.914136164996307,2512642.161032482981682],[257785.472120310470928,2512583.603048337623477],[257845.165927424182883,2512526.180887160822749],[257905.995557506219484,2512469.894548951648176],[257967.961010556580732,2512414.744033711496741],[258031.06228657529573,2512360.729341439437121],[258095.299385562364478,2512307.850472135469317],[258160.672307517728768,2512256.107425800524652],[258227.181052441417705,2512205.500202433206141],[258294.825620333489496,2512156.02880203537643],[258363.606011193827726,2512107.693224605172873],[258433.52222502254881,2512060.49347014259547],[258504.574261819652747,2512014.429538649041206],[258576.762121585023124,2511969.501430124044418],[258650.085804318776354,2511925.709144567139447],[258724.545310020912439,2511883.052681978326291],[258800.140638691314962,2511841.532042358070612],[258876.871790329983924,2511801.147225705906749],[258952.088511344278231,2511757.985952909104526],[259025.790801734197885,2511712.048223967663944],[259097.978661499597365,2511663.334038881119341],[259168.652090640563983,2511611.843397649936378],[259237.811089157068636,2511557.576300273649395],[259305.455657049111323,2511500.532746753189713],[259371.585794316721149,2511440.712737087160349],[259436.201500959810801,2511378.116271276958287],[259499.302776978525799,2511312.743349321186543],[259560.889622372807935,2511244.593971221707761],[259620.962037142599002,2511173.668136976659298],[259679.520021288015414,2511099.965846586041152],[259736.563574808940757,2511023.48710005171597],[259792.092697705375031,2510944.231897371821105],[259846.107389977405546,2510862.200238547753543],[259898.607651624974096,2510777.392123578581959],[259949.593482648080681,2510689.807552464306355],[259999.064883046754403,2510599.446525205858052],[260047.02185282096616,2510506.309041801840067],[260093.464391970715951,2510410.395102254115045],[260138.392500496061984,2510311.704706560820341],[260181.806178396946052,2510210.237854721955955],[260223.705425673397258,2510105.994546739384532],[260264.09024232532829,2509998.974782611243427],[260302.960628352884669,2509889.178562338929623],[260340.316583755949978,2509776.605885921511799],[260376.158108534582425,2509661.256753358989954],[260410.48520268878201,2509543.131164652295411],[260443.297866218490526,2509422.229119800031185],[260474.596099123824388,2509298.550618804059923],[260504.379901404638076,2509172.095661662518978],[260532.649273061018903,2509042.864248375408351],[260559.025606436858652,2508912.244607016909868],[260583.50890153212822,2508780.236737585626543],[260606.099158346827608,2508646.840640082489699],[260626.79637688092771,2508512.056314506102353],[260645.600557134486735,2508375.883760857861489],[260662.511699107533786,2508238.322979137301445],[260677.529802799981553,2508099.37396934395656],[260690.654868211888243,2507959.036731478292495],[260701.886895343253855,2507817.31126554030925],[260711.225884193961974,2507674.197571529541165],[260718.671834764187224,2507529.69564944691956],[260724.224747053813189,2507383.805499291513115],[260727.884621062898077,2507236.527121064253151],[260729.651456791441888,2507087.860514763742685],[260729.525254239386413,2506937.805680391378701],[260727.506013406789862,2506786.362617946695536],[260723.593734293652233,2506633.531327429227531],[260717.788416899915319,2506479.311808839906007],[260710.090061225637328,2506323.704062177799642],[260700.498667270701844,2506166.708087442442775],[260689.014235035283491,2506008.32388463569805],[260675.636764519382268,2505848.551453756168485],[260660.366255722852657,2505687.390794804319739],[260643.202708645781968,2505524.841907780617476],[260624.146123288141098,2505360.904792684130371],[260603.196499649930047,2505195.579449514858425],[260580.353837731148815,2505028.865878273267299],[260555.618137531797402,2504860.764078959822655],[260528.989399051934015,2504691.274051573127508],[260500.46762229144224,2504520.395796114578843],[260470.052807250438491,2504348.129312583710998],[260437.744953928864561,2504174.474600980058312],[260411.747228209162131,2504003.091535313520581],[260392.059630091331201,2503833.98011558316648],[260378.682159575342666,2503667.140341789927334],[260371.614816661254736,2503502.57221393333748],[260370.857601349038305,2503340.275732013396919],[260376.410513638693374,2503180.250896029639989],[260388.273553530190839,2503022.497705982532352],[260406.446721023588907,2502867.016161872539669],[260430.930016118858475,2502713.806263698730618],[260461.723438815970439,2502562.86801146203652],[260498.826989114983007,2502414.201405161991715],[260542.240667015837971,2502267.806444798596203],[260591.964472518593539,2502123.683130371849984],[260647.998405623220606,2501981.831461881753057],[260710.342466329690069,2501842.251439328305423],[260778.996654638031032,2501704.943062711972743],[260853.960970548272599,2501569.906332031823695],[260935.235414060414769,2501437.141247288323939],[261022.819985174370231,2501306.647808481473476],[261116.714683890226297,2501178.426015611737967],[261216.919510207953863,2501052.475868678186089],[261323.434464127494721,2500928.797367681749165],[261436.259545648936182,2500807.390512621495873],[261555.394754772307351,2500688.255303498357534],[261680.840091497462709,2500571.391740311868489],[261812.595555824518669,2500456.799823061563075],[261950.661147753475234,2500344.479551748372614],[262095.036867284274194,2500234.430926371831447],[262245.722714416973758,2500126.653946931473911],[262402.718689151515719,2500021.14861342869699],[262566.024791487958282,2499917.914925862103701],[262735.641021426243242,2499816.952884231694043],[262901.471174803446047,2499713.340589009225368],[263063.515251619450282,2499607.078040193766356],[263221.773251874372363,2499498.165237785317004],[263376.245175568270497,2499386.602181784342974],[263526.931022700970061,2499272.388872190378606],[263673.830793272471055,2499155.525309003889561],[263816.944487282889895,2499036.011492224410176],[263956.27210473222658,2498913.847421852406114],[264091.813645620364696,2498789.033097887411714],[264223.569109947478864,2498661.568520329892635],[264351.538497713452671,2498531.453689179383218],[264475.721808918227907,2498398.688604435883462],[264596.119043561979197,2498263.273266099393368],[264712.730201644531917,2498125.207674170844257],[264825.555283166002482,2497984.491828648839146],[264934.594288126332685,2497841.125729534309357],[265039.847216525522526,2497695.109376827254891],[265141.314068363630213,2497546.442770526744425],[265238.994843640597537,2497395.125910634174943],[265332.889542356424499,2497241.158797148615122],[265422.998164511169307,2497084.541430070064962],[265509.320710104773752,2496925.273809398524463],[265591.857179137237836,2496763.355935134459287],[265670.607571608561557,2496598.787807277869433],[265745.571887518803123,2496431.569425827823579],[265816.750126867962535,2496261.700790785718709],[265884.142289655923378,2496089.1819021506235],[265947.748375882743858,2495914.012759923003614],[266007.568385548482183,2495736.193364101927727],[266063.602318653138354,2495555.723714688327163],[266115.850175196654163,2495372.603811682201922],[266164.311955178971402,2495186.83365508262068],[266210.754494328750297,2495001.946916347835213],[266255.177792645990849,2494817.943595477379858],[266297.58185013057664,2494634.823692470788956],[266337.966666782507673,2494452.587207329459488],[266376.332242601842154,2494271.234140051528811],[266412.678577588638291,2494090.764490637928247],[266447.005671742779668,2493911.178259088657796],[266479.31352506444091,2493732.475445403717458],[266509.602137553389184,2493554.656049583107233],[266537.871509209799115,2493377.720071626827121],[266564.121640033554286,2493201.66751153441146],[266588.352530024712905,2493026.498369306325912],[266610.564179183274973,2492852.212644942570478],[266630.756587509298697,2492678.810338443145156],[266648.929755002667662,2492506.291449808049947],[266665.083681663498282,2492334.65597903681919],[266679.218367491674144,2492163.903926130384207],[266691.333812487253454,2491994.035291088279337],[266701.430016650236212,2491825.050073910038918],[266709.506979980680626,2491656.948274596128613],[266715.564702478470281,2491489.72989314654842],[266719.603184143663384,2491323.394929561298341],[266721.622424976259936,2491157.943383840378374],[266721.622424976259936,2490993.37525598378852],[266719.603184143663384,2490829.690545991063118],[266715.564702478470281,2490666.88925386313349],[266709.506979980680626,2490504.971379598602653],[266701.430016650236212,2490343.936923198401928],[266691.333812487253454,2490183.785884662996978],[266679.218367491674144,2490024.51826399192214],[266665.083681663498282,2489866.134061184711754],[266648.929755002667662,2489708.633276242762804],[266638.581145735573955,2489551.76350405998528],[266634.037853862275369,2489395.524744637310505],[266635.29987938265549,2489239.91699797520414],[266642.367222296714317,2489084.940264073666185],[266655.239882604568265,2488930.594542931765318],[266673.91786030610092,2488776.8798345499672],[266698.401155401370488,2488623.796138928737491],[266728.689767890318763,2488471.343456067610532],[266764.783697773003951,2488319.521785966586322],[266806.68294504948426,2488168.33112862566486],[266854.387509719585069,2488017.771484045311809],[266907.897391783539206,2487867.842852224595845],[266967.212591241113842,2487718.545233164448291],[267032.333108092425391,2487569.878626864403486],[267103.258942337415647,2487421.843033323995769],[267179.990093976142816,2487274.438452544622123],[267262.5265630086069,2487127.664884524885565],[267350.868349434807897,2486981.522329265251756],[267445.015453254745807,2486836.010786766186357],[267544.967874468362425,2486691.130257027223706],[267650.725613075774163,2486546.880740048363805],[267762.2886690768064,2486403.262235830072314],[267879.657042471633758,2486260.274744371883571],[268002.830733260139823,2486117.918265673331916],[268131.809741442441009,2485976.192799735814333],[268266.594067018362693,2485835.098346557933837],[268407.183709988021292,2485694.63490614015609],[268553.578670351533219,2485554.802478482946754],[268705.778948108665645,2485415.601063585374504],[268863.784543259476777,2485277.030661448370665],[269027.595455804024823,2485139.091272071469575],[269197.21168574236799,2485001.782895454671234],[269363.925256983784493,2484861.824265245348215],[269527.736169528332539,2484719.215381442569196],[269688.644423376070336,2484573.956244047731161],[269846.650018526881468,2484426.046853059902787],[270001.75295498088235,2484275.487208479084074],[270153.953232738014776,2484122.277310306206346],[270303.250851798278745,2483966.417158539872617],[270449.645812161790673,2483807.90675318101421],[270593.138113828375936,2483646.746094229631126],[270733.727756798034534,2483482.935181684792042],[270871.414741070824675,2483316.474015547893941],[271006.19906664674636,2483147.36259581707418],[271138.080733525857795,2482975.600922494195402],[271267.059741708158981,2482801.188995578791946],[271393.136091193533503,2482624.126815070398152],[271516.309781982039567,2482444.414380968548357],[271636.580814073735382,2482262.051693274639547],[271753.949187468504533,2482077.038751987740397],[271868.414902166463435,2481889.375557107850909],[271979.977958167553879,2481699.062108635902405],[272088.638355471775867,2481506.0984065704979],[272194.396094079187606,2481310.484450912103057],[272297.251173989672679,2481112.220241661183536],[272397.203595203289296,2480911.305778818204999],[272494.253357720037457,2480707.741062381304801],[272588.400461539975367,2480501.526092352345586],[272679.644906663044821,2480292.660868730396032],[272767.986693089187611,2480081.14539151545614],[272853.425820818520151,2479866.979660708457232],[272935.962289851042442,2479650.163676307536662],[273015.596100186638068,2479430.697438314557076],[273092.327251825365238,2479208.580946729052812],[273165.019921798957512,2478983.183188790455461],[273233.674110107240267,2478754.50416449829936],[273298.289816750446334,2478522.543873853515834],[273358.867041728459299,2478287.302316855639219],[273415.405785041220952,2478048.779493505135179],[273467.906046688731294,2477806.975403801072389],[273516.367826671106741,2477561.890047744382173],[273560.791124988347292,2477313.523425334598869],[273601.175941640278324,2477061.875536572188139],[273637.522276627074461,2476806.94638145621866],[273669.830129948677495,2476548.735959988087416],[273698.099501605029218,2476287.244272166863084],[273722.330391596246045,2476022.471317992080003],[273742.522799922211561,2475754.417097464203835],[273758.676726582983974,2475483.08161058370024],[273770.792171578563284,2475208.46485735103488],[273778.869134908949491,2474930.566837764345109],[273782.907616574142594,2474649.387551824562252],[273782.907616574142594,2474364.926999532617629],[273778.869134908949491,2474077.185180887114257],[273770.792171578563284,2473786.162095888983458],[273758.676726582983974,2473491.857744537293911],[273742.522799922211561,2473194.272126833442599],[273722.330391596246045,2472893.405242776032537],[273698.099501605029218,2472589.257092365995049],[273669.830129948677495,2472281.827675603330135],[273637.522276627074461,2471971.116992487106472],[273601.175941640278324,2471657.12504301732406],[273560.791124988347292,2471339.851827195379883],[273516.367826671106741,2471019.297345020342618],[273467.906046688731294,2470695.461596492212266],[273415.405785041220952,2470368.344581611454487],[273365.808182090520859,2470046.528073915746063],[273319.113237836631015,2469730.012073406018317],[273275.320952279609628,2469418.796580081805587],[273234.431325419573113,2469112.881593942642212],[273196.44435725628864,2468812.267114989459515],[273161.360047789872624,2468516.953143222257495],[273129.178397020325065,2468226.93967864010483],[273099.899404947645962,2467942.226721243467182],[273073.523071571835317,2467662.814271032810211],[273050.049396892893128,2467388.702328007202595],[273029.478380910819396,2467119.890892167575657],[273011.810023625497706,2466856.379963513463736],[272997.044325037160888,2466598.16954204486683],[272985.181285145576112,2466345.259627762250602],[272976.220903950976208,2466097.650220664683729],[272970.163181453128345,2465855.341320752631873],[272967.008117652207147,2465618.332928026095033],[272966.755712548096199,2465386.625042486004531],[272969.405966140911914,2465160.217664130963385],[272974.958878430537879,2464939.110792960971594],[272983.414449417090509,2464723.30442897696048],[272994.772679100453388,2464512.798572178930044],[273009.033567480684724,2464307.593222565948963],[273026.197114557784516,2464107.68838013894856],[273046.263320331752766,2463913.084044897463173],[273069.232184802531265,2463723.780216841027141],[273095.103707970236428,2463539.776895970571786],[273123.877889834751841,2463361.074082285165787],[273155.55473039613571,2463187.671775785740465],[273190.134229654329829,2463019.569976471830159],[273227.616387609450612,2462856.76868434343487],[273268.00120426149806,2462699.26789940148592],[273304.599944352346938,2462539.495468521956354],[273337.412607881997246,2462377.451391705777496],[273366.439194850623608,2462213.135668952949345],[273391.679705258109607,2462046.548300263471901],[273413.134139104455244,2461877.689285637345165],[273430.802496389718726,2461706.558625074569136],[273444.684777113841847,2461533.156318575143814],[273454.780981276824605,2461357.4823661390692],[273461.091108878725208,2461179.536767766345292],[273463.615159919427242,2460999.319523456972092],[273462.353134399047121,2460816.8306332109496],[273457.305032317643054,2460632.070097028277814],[273448.470853675040416,2460445.037914908956736],[273435.850598471239209,2460255.734086852520704],[273419.444266706355847,2460064.158612859901041],[273399.251858380390331,2459870.311492929700762],[273375.273373493226245,2459674.192727063782513],[273347.508812045038212,2459475.80231526074931],[273315.958174035709817,2459275.140257521532476],[273280.621459465182852,2459072.206553845666349],[273241.49866833363194,2458867.001204232685268],[273198.589800640882459,2458659.524208682589233],[273151.894856387050822,2458449.775567196309566],[273101.413835572078824,2458237.755279773846269],[273047.146738195966464,2458023.463346414268017],[272989.093564258771949,2457806.899767117574811],[272927.254313760437071,2457588.064541884697974],[272861.628986700961832,2457366.957670715637505],[272792.217583080404438,2457143.579153609462082],[272719.020102898706682,2456917.928990566171706],[272642.036546155868564,2456690.007181586697698],[272561.266912851890083,2456459.813726671040058],[272481.380697412241716,2456231.134702379349619],[272402.377899836807046,2456003.970108711626381],[272324.258520125644282,2455778.319945668801665],[272247.022558278695215,2455554.184213250409812],[272170.670014296076261,2455331.56291145645082],[272095.200888177729212,2455110.456040286459029],[272020.615179923595861,2454890.863599741831422],[271946.912889533676207,2454672.785589820705354],[271874.094017008086666,2454456.222010524943471],[271802.158562346769031,2454241.172861852683127],[271731.106525549665093,2454027.638143805786967],[271660.937906616949476,2453815.617856383323669],[271591.652705548389349,2453605.111999584827572],[271523.250922344101127,2453396.120573410298675],[271455.732557004084811,2453188.643577860668302],[271389.097609528340399,2452982.681012935936451],[271323.346079916867893,2452778.232878635171801],[271258.477968169609085,2452575.299174958840013],[271194.493274286680389,2452373.879901907406747],[271131.391998267907184,2452173.975059479475021],[271069.174140113464091,2451975.58464767690748],[271007.839699823292904,2451778.7086664987728],[270947.388677397335414,2451583.347115945070982],[270887.821072835649829,2451389.499996014870703],[270829.13688613823615,2451197.167306710034609],[270771.336117305094376,2451006.349048029631376],[270714.418766336224508,2450817.045219973661005],[270658.384833231626544,2450629.255822541192174],[270603.234317991300486,2450442.980855734087527],[270548.967220615188126,2450258.220319551415741],[270495.583541103405878,2450074.974213993176818],[270443.083279455837328,2449893.242539059370756],[270388.185169319622219,2449713.27769985422492],[270330.889210694585927,2449535.079696376807988],[270271.195403580903076,2449358.648528628982604],[270209.103747978515457,2449183.984196608886123],[270144.614243887364864,2449011.086700317915529],[270077.726891307567712,2448839.956039754673839],[270008.441690239007585,2448670.592214920558035],[269936.758640681742691,2448502.995225814636797],[269862.677742635773029,2448337.165072437375784],[269786.198996101098601,2448173.101754789240658],[269707.322401077719405,2448010.805272868834436],[269626.047957565635443,2447850.275626677088439],[269542.375665564788505,2447691.512816214002669],[269456.305525075295009,2447534.516841479577124],[269367.837536097038537,2447379.287702473811805],[269276.971698630077299,2447225.82539919577539],[269183.708012674411293,2447074.129931647330523],[269088.046478230098728,2446924.201299826614559],[268989.987095297023188,2446776.039503735024482],[268889.529863875184674,2446629.64454337162897],[268786.6747839646996,2446485.016418736428022],[268681.421855565509759,2446342.155129830352962],[268573.771078677556943,2446201.060676652006805],[268463.72245330089936,2446061.733059203252196],[268351.27597943553701,2445924.172277482226491],[268236.431657081528101,2445788.378331489861012],[268119.189486238756217,2445654.351221226155758],[267999.549466907279566,2445522.09094669111073],[267877.511599087098148,2445391.597507884725928],[267753.075882778153755,2445262.87090480607003],[267626.242317980562802,2445135.911137456540018],[267497.010904694267083,2445010.718205835204571],[267366.64366843958851,2444886.030084421858191],[267235.140609216643497,2444761.846773217432201],[267102.501727025257424,2444638.168272220529616],[266968.727021865546703,2444514.994581432081759],[266833.816493737569544,2444392.32570085208863],[266697.770142641267739,2444270.161630479618907],[266560.58796857658308,2444148.502370315603912],[266422.269971543515567,2444027.347920360043645],[266282.816151542123407,2443906.698280612006783],[266142.226508572464809,2443786.55345107242465],[266000.501042634481564,2443666.913431741297245],[265857.639753728057258,2443547.778222617693245],[265713.642641853366513,2443429.147823702543974],[265568.509707010351121,2443311.022234995849431],[265422.240949199011084,2443193.401456496678293],[265274.836368419288192,2443076.285488205961883],[265126.295964671298862,2442959.674330123700202],[264976.619737954868469,2442843.567982248961926],[264825.807688270171639,2442727.966444582678378],[264673.859815617091954,2442612.869717124849558],[264520.77611999574583,2442498.277799874544144],[264366.556601405958645,2442384.190692832693458],[264211.201259847905021,2442270.6083959992975],[264054.710095321526751,2442157.530909373424947],[263897.083107826765627,2442044.958232956007123],[263738.320297363738064,2441932.890366747044027],[263578.421663932327647,2441821.327310745604336],[263417.387207532534376,2441710.269064952619374],[263255.216928164474666,2441599.715629368089139],[263091.910825827973895,2441489.667003991082311],[262927.468900523264892,2441380.123188822995871],[262761.891152250114828,2441271.084183862898499],[262595.051378456642851,2441163.054799319244921],[262426.949579142790753,2441056.035035191103816],[262257.585754308558535,2440950.024891479872167],[262086.959903953946196,2440845.024368184618652],[261915.072028079011943,2440741.033465305808932],[261741.922126683639362,2440638.052182842977345],[261567.510199767944869,2440536.080520797055215],[261391.836247331870254,2440435.118479166645557],[261214.900269375415519,2440335.166057953145355],[261036.702265898580663,2440236.223257156088948],[260857.242236901336582,2440138.290076775010675],[260676.520182383770589,2440041.366516810376197],[260494.536102345795371,2439945.452577262185514],[260311.289996787410928,2439850.548258129507303],[260126.781865708704572,2439756.653559413738549],[259941.0117091096472,2439663.768481113947928],[259747.543196836253628,2439569.495174741838127],[259546.376328888640273,2439473.833640297409147],[259337.51110526669072,2439376.783877780660987],[259120.947525970463175,2439278.345887191593647],[258896.68559099995764,2439178.519668530207127],[258664.725300355174113,2439077.305221796035767],[258425.066654036112595,2438974.702546990010887],[258177.709652042773087,2438870.711644110735506],[257903.345303913432872,2438758.138967693783343],[257601.973609648062848,2438636.984517737757415],[257273.594569246663013,2438507.248294243589044],[256918.208182709262474,2438368.930297209881246],[256477.887478650693083,2438200.449890240095556],[255952.632457070925739,2438001.80707333330065],[255168.662203814456007,2437708.259937294293195],[253604.633976414683275,2437125.582754537463188]]]}}
]
}
